CAS-2T & KS-1Q          
1 41847U 16066G   21005.11756251  .00000063  00000-0  20184-4 0  9997
2 41847  98.6272  63.3671 0365188 347.9619  11.3011 14.38133495218409
NAYIF-1 (EO-88)         
1 42017U 17008BX  21005.14323353  .00002109  00000-0  81517-4 0  9990
2 42017  97.3377  75.5815 0005316 343.2731  16.8332 15.27324522216321
ZHUHAI-1 02 (CAS-4B)    
1 42759U 17034B   21005.18863578  .00000434  00000-0  39619-4 0  9999
2 42759  43.0191 358.5258 0010294 228.2279 235.1555 15.10031193196467
ZHUHAI-1 01 (CAS-4A)    
1 42761U 17034D   21005.23836713  .00000405  00000-0  37803-4 0  9990
2 42761  43.0195 357.4179 0010738 229.3700 145.4808 15.10111462196471
MAX VALIER SAT          
1 42778U 17036P   21005.13774576  .00001201  00000-0  53708-4 0  9994
2 42778  97.2794  58.9313 0012923  39.0240 321.1927 15.23114880196422
RADFXSAT (FOX-1B)       
1 43017U 17073E   21004.31585254  .00000580  00000-0  49586-4 0  9992
2 43017  97.7173 274.7340 0257267 115.5743 247.2302 14.79241127168859
FOX-1D (AO-92)          
1 43137U 18004AC  21005.14291660  .00001434  00000-0  60839-4 0  9990
2 43137  97.4261  80.7562 0010480  70.5988 289.6381 15.24688091165763
DIWATA-2B               
1 43678U 18084H   21005.18619040  .00000465  00000-0  51929-4 0  9991
2 43678  97.9049 129.8638 0008891 225.0299 135.0175 14.91697935119096
ES'HAIL 2               
1 43700U 18090A   21004.55012740  .00000154  00000-0  00000-0 0  9993
2 43700   0.0182  38.2475 0001675 282.0704   7.8856  1.00269864  7724
FOX-1CLIFF (AO-95)      
1 43770U 18099N   21005.16424506  .00000257  00000-0  28584-4 0  9999
2 43770  97.6860  78.8095 0013238 240.5963 119.3937 14.95161742114056
ITASAT 1                
1 43786U 18099AE  21005.18365066 -.00000038  00000-0  17354-5 0  9995
2 43786  97.6875  79.3924 0014094 233.6689 126.3231 14.95475182114089
JY1SAT (JO-97)          
1 43803U 18099AX  21005.17249441  .00000006  00000-0  57123-5 0  9994
2 43803  97.6838  79.1573 0013966 233.8080 126.1850 14.95689182114082
PSAT2 (NO-104)          
1 44354U 19036R   21004.57524263  .00009702  00000-0  13251-3 0  9993
2 44354  28.5306 135.6076 0343995 305.8046  51.1036 15.08678309 84165
BRICSAT2 (NO-103)       
1 44355U 19036S   21004.58894140  .00021268  00000-0  26387-3 0  9994
2 44355  28.5289 112.1271 0303817 344.0642  15.0569 15.19097436 84404
JAISAT-1                
1 44419U 19038F   21004.41348916  .00001212  00000-0  71545-4 0  9998
2 44419  97.5669 330.0161 0021872 153.8783 206.3557 15.13270574 82985
DUCHIFAT-3              
1 44854U 19089C   21005.17270708  .00000618  00000-0  56040-4 0  9996
2 44854  36.9670 346.0782 0008872 260.4178  99.5551 14.99282917 58583
RS-44 & BREEZE-KM R/B   
1 44909U 19096E   21005.06999791  .00000002  00000-0 -45783-4 0  9993
2 44909  82.5198 221.3464 0218290 115.0206 247.3734 12.79708048 47973
ORBITAL FACTORY 2 (OF-2)
1 45113U 19071C   21005.00934404  .00003235  00000-0  10630-3 0  9990
2 45113  51.6429 109.2275 0012875  64.3806 295.8505 15.34534023 52066
HUSKYSAT-1              
1 45119U 19071J   21004.57301844  .00003067  00000-0  10099-3 0  9995
2 45119  51.6423 110.8132 0012213  59.8455 300.3736 15.34654469 51997
BY70-2                  
1 45857U 20042B   21005.08502060  .00001275  00000-0  18989-3 0  9999
2 45857  97.9995  82.4841 0011057  27.9214 332.2569 14.76601668 27436
SALSAT                  
1 46495U 20068K   21003.79626984 -.00000062  00000-0 -13213-7 0  9998
2 46495  97.6807 302.4303 0015061 271.7675  88.1824 15.03311882 14592
BY70-3                  
1 46839U 20079N   21005.20461541  .00002691  00000-0  87838-4 0  9995
2 46839  97.2592  82.2802 0009015  75.6466 341.7451 15.32592281  9199
OSCAR 7 (AO-7)          
1 07530U 74089B   21004.51132677 -.00000035  00000-0  63669-4 0  9995
2 07530 101.8315 339.3423 0012243 338.5014 139.2458 12.53646762111185
